{
    "links": {
        "self": "http://www.neowsapp.com/rest/v1/neo/3787630?api_key=iIulBulltgU6a56xZRHN4H3l9WmuAYTsLGpBGhQ2"
    },
    "id": "3787630",
    "neo_reference_id": "3787630",
    "name": "(2017 UF3)",
    "designation": "2017 UF3",
    "nasa_jpl_url": "http://ssd.jpl.nasa.gov/sbdb.cgi?sstr=3787630",
    "absolute_magnitude_h": 26.2,
    "estimated_diameter": {
        "kilometers": {
            "estimated_diameter_min": 0.0152951935,
            "estimated_diameter_max": 0.0342010925
        },
        "meters": {
            "estimated_diameter_min": 15.2951935344,
            "estimated_diameter_max": 34.201092472
        },
        "miles": {
            "estimated_diameter_min": 0.0095039897,
            "estimated_diameter_max": 0.021251567
        },
        "feet": {
            "estimated_diameter_min": 50.1810827555,
            "estimated_diameter_max": 112.2083122258
        }
    },
    "is_potentially_hazardous_asteroid": false,
    "close_approach_data": [
        {
            "close_approach_date": "2017-10-16",
            "close_approach_date_full": "2017-Oct-16 22:01",
            "epoch_date_close_approach": 1508191260000,
            "relative_velocity": {
                "kilometers_per_second": "9.1437046778",
                "kilometers_per_hour": "32917.3368400529",
                "miles_per_hour": "20453.552993754"
            },
            "miss_distance": {
                "astronomical": "0.0627991198",
                "lunar": "24.4288576022",
                "kilometers": "9394614.559954826",
                "miles": "5837542.7970995588"
            },
            "orbiting_body": "Earth"
        }
    ],
    "orbital_data": {
        "orbit_id": "1",
        "orbit_determination_date": "2017-10-23 17:42:06",
        "first_observation_date": "2017-10-21",
        "last_observation_date": "2017-10-23",
        "data_arc_in_days": 2,
        "observations_used": 25,
        "orbit_uncertainty": "8",
        "minimum_orbit_intersection": ".0611626",
        "jupiter_tisserand_invariant": "4.496",
        "epoch_osculation": "2458048.5",
        "eccentricity": ".3096842240364593",
        "semi_major_axis": "1.480868601920768",
        "inclination": "14.44272334050102",
        "ascending_node_longitude": "210.6390604796234",
        "orbital_period": "658.2232439195466",
        "perihelion_distance": "1.022266958034979",
        "perihelion_argument": "145.9819029634399",
        "aphelion_distance": "1.939470245806558",
        "perihelion_time": "2458017.750352777208",
        "mean_anomaly": "16.81780931084556",
        "mean_motion": ".5469269025753246",
        "equinox": "J2000",
        "orbit_class": {
            "orbit_class_type": "AMO",
            "orbit_class_description": "Near-Earth asteroid orbits similar to that of 1221 Amor",
            "orbit_class_range": "1.017 AU < q (perihelion) < 1.3 AU"
        }
    },
    "is_sentry_object": false
}